{
  "type": "FeatureCollection",
  "features": [
    {
      "type": "Feature",
      "properties": {
        "norad_id": 35915,
        "name": "IRIDIUM 33 DEB",
        "group": "iridium-33-debris",
        "lat": -35.55233613942392,
        "lon": 164.4103336537329,
        "alt_km": 627.0926349638112,
        "timestamp": "2025-12-15T07:02:38.000566+00:00",
        "meta_object_name": "IRIDIUM 33 DEB",
        "meta_object_id": "1997-051TY",
        "meta_epoch": "2025-12-14T17:05:57.780384",
        "meta_mean_motion": 14.80799889,
        "meta_eccentricity": 0.00111372,
        "meta_inclination": 86.3435,
        "meta_ra_of_asc_node": 342.0564,
        "meta_arg_of_pericenter": 178.6354,
        "meta_mean_anomaly": 181.49,
        "meta_ephemeris_type": 0,
        "meta_classification_type": "U",
        "meta_norad_cat_id": 35915,
        "meta_element_set_no": 999,
        "meta_rev_at_epoch": 8115,
        "meta_bstar": 0.0014134723,
        "meta_mean_motion_dot": 0.00010937,
        "meta_mean_motion_ddot": 0,
        "tle_line1": "1 35915U 97051TY  25348.71247431  .00010937  00000+0  14135-2 0  9991",
        "tle_line2": "2 35915  86.3435 342.0564 0011137 178.6354 181.4900 14.80799889 81156"
      },
      "geometry": {
        "type": "Point",
        "coordinates": [
          164.4103336537329,
          -35.55233613942392
        ]
      }
    },
    {
      "type": "Feature",
      "properties": {
        "norad_id": 35918,
        "name": "IRIDIUM 33 DEB",
        "group": "iridium-33-debris",
        "lat": 80.22771563069858,
        "lon": -126.71447254733846,
        "alt_km": 704.9359062807689,
        "timestamp": "2025-12-15T07:02:38.000576+00:00",
        "meta_object_name": "IRIDIUM 33 DEB",
        "meta_object_id": "1997-051UB",
        "meta_epoch": "2025-12-13T00:32:30.278688",
        "meta_mean_motion": 14.51250424,
        "meta_eccentricity": 0.00275912,
        "meta_inclination": 86.401,
        "meta_ra_of_asc_node": 75.694,
        "meta_arg_of_pericenter": 168.7296,
        "meta_mean_anomaly": 313.6735,
        "meta_ephemeris_type": 0,
        "meta_classification_type": "U",
        "meta_norad_cat_id": 35918,
        "meta_element_set_no": 999,
        "meta_rev_at_epoch": 85211,
        "meta_bstar": 0.0017263949,
        "meta_mean_motion_dot": 6.917e-05,
        "meta_mean_motion_ddot": 0,
        "tle_line1": "1 35918U 97051UB  25347.02257267  .00006917  00000+0  17264-2 0  9994",
        "tle_line2": "2 35918  86.4010  75.6940 0027591 168.7296 313.6735 14.51250424852114"
      },
      "geometry": {
        "type": "Point",
        "coordinates": [
          -126.71447254733846,
          80.22771563069858
        ]
      }
    },
    {
      "type": "Feature",
      "properties": {
        "norad_id": 35929,
        "name": "IRIDIUM 33 DEB",
        "group": "iridium-33-debris",
        "lat": -39.32435648124369,
        "lon": -51.5931761762128,
        "alt_km": 560.8847281568687,
        "timestamp": "2025-12-15T07:02:38.000587+00:00",
        "meta_object_name": "IRIDIUM 33 DEB",
        "meta_object_id": "1997-051UN",
        "meta_epoch": "2025-12-14T15:14:07.635840",
        "meta_mean_motion": 15.02568631,
        "meta_eccentricity": 0.0017869,
        "meta_inclination": 86.332,
        "meta_ra_of_asc_node": 311.7316,
        "meta_arg_of_pericenter": 31.461,
        "meta_mean_anomaly": 328.7688,
        "meta_ephemeris_type": 0,
        "meta_classification_type": "U",
        "meta_norad_cat_id": 35929,
        "meta_element_set_no": 999,
        "meta_rev_at_epoch": 87808,
        "meta_bstar": 0.0022504513,
        "meta_mean_motion_dot": 0.00030143,
        "meta_mean_motion_ddot": 0,
        "tle_line1": "1 35929U 97051UN  25348.63481060  .00030143  00000+0  22505-2 0  9996",
        "tle_line2": "2 35929  86.3320 311.7316 0017869  31.4610 328.7688 15.02568631878080"
      },
      "geometry": {
        "type": "Point",
        "coordinates": [
          -51.5931761762128,
          -39.32435648124369
        ]
      }
    },
    {
      "type": "Feature",
      "properties": {
        "norad_id": 36011,
        "name": "IRIDIUM 33 DEB",
        "group": "iridium-33-debris",
        "lat": 58.0540348350302,
        "lon": 40.21783414029159,
        "alt_km": 759.3149667906328,
        "timestamp": "2025-12-15T07:02:38.000597+00:00",
        "meta_object_name": "IRIDIUM 33 DEB",
        "meta_object_id": "1997-051US",
        "meta_epoch": "2025-12-11T21:42:29.079072",
        "meta_mean_motion": 14.41326157,
        "meta_eccentricity": 0.0017563,
        "meta_inclination": 86.3411,
        "meta_ra_of_asc_node": 35.7829,
        "meta_arg_of_pericenter": 218.6873,
        "meta_mean_anomaly": 266.0791,
        "meta_ephemeris_type": 0,
        "meta_classification_type": "U",
        "meta_norad_cat_id": 36011,
        "meta_element_set_no": 999,
        "meta_rev_at_epoch": 64528,
        "meta_bstar": 0.00076231,
        "meta_mean_motion_dot": 2.489e-05,
        "meta_mean_motion_ddot": 0,
        "tle_line1": "1 36011U 97051US  25345.90450323  .00002489  00000+0  76231-3 0  9992",
        "tle_line2": "2 36011  86.3411  35.7829 0017563 218.6873 266.0791 14.41326157645287"
      },
      "geometry": {
        "type": "Point",
        "coordinates": [
          40.21783414029159,
          58.0540348350302
        ]
      }
    },
    {
      "type": "Feature",
      "properties": {
        "norad_id": 36012,
        "name": "IRIDIUM 33 DEB",
        "group": "iridium-33-debris",
        "lat": 43.00971308048793,
        "lon": 123.17520649559756,
        "alt_km": 894.3611337131833,
        "timestamp": "2025-12-15T07:02:38.000607+00:00",
        "meta_object_name": "IRIDIUM 33 DEB",
        "meta_object_id": "1997-051UT",
        "meta_epoch": "2025-12-14T15:08:58.717824",
        "meta_mean_motion": 14.19089098,
        "meta_eccentricity": 0.02115545,
        "meta_inclination": 86.4403,
        "meta_ra_of_asc_node": 306.7711,
        "meta_arg_of_pericenter": 257.0975,
        "meta_mean_anomaly": 100.6509,
        "meta_ephemeris_type": 0,
        "meta_classification_type": "U",
        "meta_norad_cat_id": 36012,
        "meta_element_set_no": 999,
        "meta_rev_at_epoch": 65511,
        "meta_bstar": 0.0046998938,
        "meta_mean_motion_dot": 0.00012304,
        "meta_mean_motion_ddot": 0,
        "tle_line1": "1 36012U 97051UT  25348.63123516  .00012304  00000+0  46999-2 0  9991",
        "tle_line2": "2 36012  86.4403 306.7711 0211554 257.0975 100.6509 14.19089098655115"
      },
      "geometry": {
        "type": "Point",
        "coordinates": [
          123.17520649559756,
          43.00971308048793
        ]
      }
    },
    {
      "type": "Feature",
      "properties": {
        "norad_id": 36028,
        "name": "IRIDIUM 33 DEB",
        "group": "iridium-33-debris",
        "lat": -22.27386690287096,
        "lon": 127.00716811929404,
        "alt_km": 600.1663430360595,
        "timestamp": "2025-12-15T07:02:38.000617+00:00",
        "meta_object_name": "IRIDIUM 33 DEB",
        "meta_object_id": "1997-051VK",
        "meta_epoch": "2025-12-13T04:21:30.824928",
        "meta_mean_motion": 14.95340527,
        "meta_eccentricity": 0.00215137,
        "meta_inclination": 86.3216,
        "meta_ra_of_asc_node": 306.4905,
        "meta_arg_of_pericenter": 52.2095,
        "meta_mean_anomaly": 308.1078,
        "meta_ephemeris_type": 0,
        "meta_classification_type": "U",
        "meta_norad_cat_id": 36028,
        "meta_element_set_no": 999,
        "meta_rev_at_epoch": 87131,
        "meta_bstar": 0.0034254157,
        "meta_mean_motion_dot": 0.00038122,
        "meta_mean_motion_ddot": 0,
        "tle_line1": "1 36028U 97051VK  25347.18160677  .00038122  00000+0  34254-2 0  9993",
        "tle_line2": "2 36028  86.3216 306.4905 0021513  52.2095 308.1078 14.95340527871316"
      },
      "geometry": {
        "type": "Point",
        "coordinates": [
          127.00716811929404,
          -22.27386690287096
        ]
      }
    },
    {
      "type": "Feature",
      "properties": {
        "norad_id": 36080,
        "name": "IRIDIUM 33 DEB",
        "group": "iridium-33-debris",
        "lat": -27.54382398972022,
        "lon": 4.951521571407102,
        "alt_km": 755.4366895097373,
        "timestamp": "2025-12-15T07:02:38.000627+00:00",
        "meta_object_name": "IRIDIUM 33 DEB",
        "meta_object_id": "1997-051VM",
        "meta_epoch": "2025-12-12T07:47:12.921504",
        "meta_mean_motion": 14.46603626,
        "meta_eccentricity": 0.0018143,
        "meta_inclination": 86.3202,
        "meta_ra_of_asc_node": 8.1679,
        "meta_arg_of_pericenter": 158.128,
        "meta_mean_anomaly": 202.0701,
        "meta_ephemeris_type": 0,
        "meta_classification_type": "U",
        "meta_norad_cat_id": 36080,
        "meta_element_set_no": 999,
        "meta_rev_at_epoch": 47408,
        "meta_bstar": 0.00097514146,
        "meta_mean_motion_dot": 3.542e-05,
        "meta_mean_motion_ddot": 0,
        "tle_line1": "1 36080U 97051VM  25346.32445511  .00003542  00000+0  97514-3 0  9996",
        "tle_line2": "2 36080  86.3202   8.1679 0018143 158.1280 202.0701 14.46603626474086"
      },
      "geometry": {
        "type": "Point",
        "coordinates": [
          4.951521571407102,
          -27.54382398972022
        ]
      }
    }
  ]
}